{
  "type": "FeatureCollection",
  "features": [
    {
      "type": "Feature",
      "properties": {
        "norad_id": 32376,
        "name": "COSMO-SKYMED 2",
        "group": "resource",
        "lat": 2.1888517938365486,
        "lon": 163.3297464167225,
        "alt_km": 625.1312236498043,
        "timestamp": "2025-12-08T05:48:08.704186+00:00",
        "meta_object_name": "COSMO-SKYMED 2",
        "meta_object_id": "2007-059A",
        "meta_epoch": "2025-12-07T23:18:41.298048",
        "meta_mean_motion": 14.82156497,
        "meta_eccentricity": 0.00015244,
        "meta_inclination": 97.8812,
        "meta_ra_of_asc_node": 163.3668,
        "meta_arg_of_pericenter": 86.3792,
        "meta_mean_anomaly": 273.7596,
        "meta_ephemeris_type": 0,
        "meta_classification_type": "U",
        "meta_norad_cat_id": 32376,
        "meta_element_set_no": 999,
        "meta_rev_at_epoch": 97367,
        "meta_bstar": 0.00012571651,
        "meta_mean_motion_dot": 9.49e-06,
        "meta_mean_motion_ddot": 0,
        "tle_line1": "1 32376U 07059A   25341.97131132  .00000949  00000+0  12572-3 0  9995",
        "tle_line2": "2 32376  97.8812 163.3668 0001524  86.3792 273.7596 14.82156497973676"
      },
      "geometry": {
        "type": "Point",
        "coordinates": [
          163.3297464167225,
          2.1888517938365486
        ]
      }
    },
    {
      "type": "Feature",
      "properties": {
        "norad_id": 32382,
        "name": "RADARSAT-2",
        "group": "resource",
        "lat": 72.51972838125909,
        "lon": -41.74880499048083,
        "alt_km": 784.0443657829719,
        "timestamp": "2025-12-08T05:48:08.704196+00:00",
        "meta_object_name": "RADARSAT-2",
        "meta_object_id": "2007-061A",
        "meta_epoch": "2025-12-07T22:44:13.785792",
        "meta_mean_motion": 14.29985394,
        "meta_eccentricity": 0.00010789,
        "meta_inclination": 98.5798,
        "meta_ra_of_asc_node": 346.6072,
        "meta_arg_of_pericenter": 92.0377,
        "meta_mean_anomaly": 268.0929,
        "meta_ephemeris_type": 0,
        "meta_classification_type": "U",
        "meta_norad_cat_id": 32382,
        "meta_element_set_no": 999,
        "meta_rev_at_epoch": 93862,
        "meta_bstar": 6.899779e-05,
        "meta_mean_motion_dot": 1.34e-06,
        "meta_mean_motion_ddot": 0,
        "tle_line1": "1 32382U 07061A   25341.94738178  .00000134  00000+0  68998-4 0  9995",
        "tle_line2": "2 32382  98.5798 346.6072 0001078  92.0377 268.0929 14.29985394938626"
      },
      "geometry": {
        "type": "Point",
        "coordinates": [
          -41.74880499048083,
          72.51972838125909
        ]
      }
    },
    {
      "type": "Feature",
      "properties": {
        "norad_id": 32783,
        "name": "CARTOSAT-2A",
        "group": "resource",
        "lat": -14.304571256633945,
        "lon": -149.7955887103581,
        "alt_km": 645.9084020011651,
        "timestamp": "2025-12-08T05:48:08.704207+00:00",
        "meta_object_name": "CARTOSAT-2A",
        "meta_object_id": "2008-021A",
        "meta_epoch": "2025-12-07T22:25:53.632992",
        "meta_mean_motion": 14.78922923,
        "meta_eccentricity": 0.00121669,
        "meta_inclination": 97.7936,
        "meta_ra_of_asc_node": 31.9082,
        "meta_arg_of_pericenter": 19.8241,
        "meta_mean_anomaly": 340.3441,
        "meta_ephemeris_type": 0,
        "meta_classification_type": "U",
        "meta_norad_cat_id": 32783,
        "meta_element_set_no": 999,
        "meta_rev_at_epoch": 95053,
        "meta_bstar": 0.00020281748,
        "meta_mean_motion_dot": 1.447e-05,
        "meta_mean_motion_ddot": 0,
        "tle_line1": "1 32783U 08021A   25341.93464853  .00001447  00000+0  20282-3 0  9993",
        "tle_line2": "2 32783  97.7936  31.9082 0012166  19.8241 340.3441 14.78922923950538"
      },
      "geometry": {
        "type": "Point",
        "coordinates": [
          -149.7955887103581,
          -14.304571256633945
        ]
      }
    },
    {
      "type": "Feature",
      "properties": {
        "norad_id": 33320,
        "name": "HUANJING 1A (HJ-1A)",
        "group": "resource",
        "lat": -12.463003152259285,
        "lon": -27.56895064292896,
        "alt_km": 616.2591529582805,
        "timestamp": "2025-12-08T05:48:08.704217+00:00",
        "meta_object_name": "HUANJING 1A (HJ-1A)",
        "meta_object_id": "2008-041A",
        "meta_epoch": "2025-12-07T23:22:59.272896",
        "meta_mean_motion": 14.83370889,
        "meta_eccentricity": 0.00204187,
        "meta_inclination": 97.6538,
        "meta_ra_of_asc_node": 330.4716,
        "meta_arg_of_pericenter": 49.4553,
        "meta_mean_anomaly": 310.8435,
        "meta_ephemeris_type": 0,
        "meta_classification_type": "U",
        "meta_norad_cat_id": 33320,
        "meta_element_set_no": 999,
        "meta_rev_at_epoch": 93005,
        "meta_bstar": 0.00029750269,
        "meta_mean_motion_dot": 2.397e-05,
        "meta_mean_motion_ddot": 0,
        "tle_line1": "1 33320U 08041A   25341.97429714  .00002397  00000+0  29750-3 0  9998",
        "tle_line2": "2 33320  97.6538 330.4716 0020418  49.4553 310.8435 14.83370889930052"
      },
      "geometry": {
        "type": "Point",
        "coordinates": [
          -27.56895064292896,
          -12.463003152259285
        ]
      }
    },
    {
      "type": "Feature",
      "properties": {
        "norad_id": 33321,
        "name": "HUANJING 1B (HJ-1B)",
        "group": "resource",
        "lat": -38.13623038850341,
        "lon": 148.38741366660744,
        "alt_km": 643.5180112704738,
        "timestamp": "2025-12-08T05:48:08.704228+00:00",
        "meta_object_name": "HUANJING 1B (HJ-1B)",
        "meta_object_id": "2008-041B",
        "meta_epoch": "2025-12-07T22:20:44.038464",
        "meta_mean_motion": 14.82801828,
        "meta_eccentricity": 0.00382368,
        "meta_inclination": 97.6397,
        "meta_ra_of_asc_node": 334.1397,
        "meta_arg_of_pericenter": 91.0339,
        "meta_mean_anomaly": 269.5256,
        "meta_ephemeris_type": 0,
        "meta_classification_type": "U",
        "meta_norad_cat_id": 33321,
        "meta_element_set_no": 999,
        "meta_rev_at_epoch": 93006,
        "meta_bstar": 0.00024834093,
        "meta_mean_motion_dot": 1.983e-05,
        "meta_mean_motion_ddot": 0,
        "tle_line1": "1 33321U 08041B   25341.93106526  .00001983  00000+0  24834-3 0  9996",
        "tle_line2": "2 33321  97.6397 334.1397 0038236  91.0339 269.5256 14.82801828930067"
      },
      "geometry": {
        "type": "Point",
        "coordinates": [
          148.38741366660744,
          -38.13623038850341
        ]
      }
    },
    {
      "type": "Feature",
      "properties": {
        "norad_id": 33331,
        "name": "GEOEYE 1",
        "group": "resource",
        "lat": 44.12958707900579,
        "lon": -118.45478001002888,
        "alt_km": 675.8732195105376,
        "timestamp": "2025-12-08T05:48:08.704239+00:00",
        "meta_object_name": "GEOEYE 1",
        "meta_object_id": "2008-042A",
        "meta_epoch": "2025-12-07T22:37:45.425568",
        "meta_mean_motion": 14.64802015,
        "meta_eccentricity": 0.00028186,
        "meta_inclination": 98.1257,
        "meta_ra_of_asc_node": 53.2834,
        "meta_arg_of_pericenter": 298.008,
        "meta_mean_anomaly": 62.0838,
        "meta_ephemeris_type": 0,
        "meta_classification_type": "U",
        "meta_norad_cat_id": 33331,
        "meta_element_set_no": 999,
        "meta_rev_at_epoch": 92215,
        "meta_bstar": 0.00020302456,
        "meta_mean_motion_dot": 1.035e-05,
        "meta_mean_motion_ddot": 0,
        "tle_line1": "1 33331U 08042A   25341.94288687  .00001035  00000+0  20302-3 0  9992",
        "tle_line2": "2 33331  98.1257  53.2834 0002818 298.0080  62.0838 14.64802015922155"
      },
      "geometry": {
        "type": "Point",
        "coordinates": [
          -118.45478001002888,
          44.12958707900579
        ]
      }
    },
    {
      "type": "Feature",
      "properties": {
        "norad_id": 33396,
        "name": "THEOS",
        "group": "resource",
        "lat": -5.190147505881205,
        "lon": 41.250445469615485,
        "alt_km": 828.8056198093545,
        "timestamp": "2025-12-08T05:48:08.704249+00:00",
        "meta_object_name": "THEOS",
        "meta_object_id": "2008-049A",
        "meta_epoch": "2025-12-07T21:22:19.746912",
        "meta_mean_motion": 14.20094847,
        "meta_eccentricity": 0.0001114,
        "meta_inclination": 98.5875,
        "meta_ra_of_asc_node": 40.1231,
        "meta_arg_of_pericenter": 100.5905,
        "meta_mean_anomaly": 259.5398,
        "meta_ephemeris_type": 0,
        "meta_classification_type": "U",
        "meta_norad_cat_id": 33396,
        "meta_element_set_no": 999,
        "meta_rev_at_epoch": 89081,
        "meta_bstar": 7.9781134e-05,
        "meta_mean_motion_dot": 1.27e-06,
        "meta_mean_motion_ddot": 0,
        "tle_line1": "1 33396U 08049A   25341.89050633  .00000127  00000+0  79781-4 0  9999",
        "tle_line2": "2 33396  98.5875  40.1231 0001114 100.5905 259.5398 14.20094847890812"
      },
      "geometry": {
        "type": "Point",
        "coordinates": [
          41.250445469615485,
          -5.190147505881205
        ]
      }
    }
  ]
}